{
  "type": "FeatureCollection",
  "features": [
    {
      "type": "Feature",
      "properties": {
        "norad_id": 28890,
        "name": "BEIJING 1",
        "group": "dmc",
        "lat": -35.83297689699295,
        "lon": -81.16575366519287,
        "alt_km": 681.4395878000787,
        "timestamp": "2025-12-03T08:58:45.665706+00:00",
        "meta_object_name": "BEIJING 1",
        "meta_object_id": "2005-043A",
        "meta_epoch": "2025-12-03T04:42:47.207808",
        "meta_mean_motion": 14.63350951,
        "meta_eccentricity": 0.0014828,
        "meta_inclination": 98.265,
        "meta_ra_of_asc_node": 104.6811,
        "meta_arg_of_pericenter": 170.3714,
        "meta_mean_anomaly": 189.7774,
        "meta_ephemeris_type": 0,
        "meta_classification_type": "U",
        "meta_norad_cat_id": 28890,
        "meta_element_set_no": 999,
        "meta_rev_at_epoch": 7198,
        "meta_bstar": 0.000123,
        "meta_mean_motion_dot": 5.87e-06,
        "meta_mean_motion_ddot": 0,
        "tle_line1": "1 28890U 05043A   25337.19637972  .00000587  00000+0  12300-3 0  9991",
        "tle_line2": "2 28890  98.2650 104.6811 0014828 170.3714 189.7774 14.63350951 71981"
      },
      "geometry": {
        "type": "Point",
        "coordinates": [
          -81.16575366519287,
          -35.83297689699295
        ]
      }
    },
    {
      "type": "Feature",
      "properties": {
        "norad_id": 33320,
        "name": "HUANJING 1A (HJ-1A)",
        "group": "dmc",
        "lat": -68.7153740009874,
        "lon": -13.743392894886355,
        "alt_km": 635.9796389065013,
        "timestamp": "2025-12-03T08:58:45.665731+00:00",
        "meta_object_name": "HUANJING 1A (HJ-1A)",
        "meta_object_id": "2008-041A",
        "meta_epoch": "2025-12-03T04:26:17.359296",
        "meta_mean_motion": 14.83344196,
        "meta_eccentricity": 0.0020656,
        "meta_inclination": 97.6535,
        "meta_ra_of_asc_node": 325.8831,
        "meta_arg_of_pericenter": 63.9745,
        "meta_mean_anomaly": 296.3594,
        "meta_ephemeris_type": 0,
        "meta_classification_type": "U",
        "meta_norad_cat_id": 33320,
        "meta_element_set_no": 999,
        "meta_rev_at_epoch": 92934,
        "meta_bstar": 0.00024935,
        "meta_mean_motion_dot": 2e-05,
        "meta_mean_motion_ddot": 0,
        "tle_line1": "1 33320U 08041A   25337.18492314  .00002000  00000+0  24935-3 0  9993",
        "tle_line2": "2 33320  97.6535 325.8831 0020656  63.9745 296.3594 14.83344196929349"
      },
      "geometry": {
        "type": "Point",
        "coordinates": [
          -13.743392894886355,
          -68.7153740009874
        ]
      }
    },
    {
      "type": "Feature",
      "properties": {
        "norad_id": 33321,
        "name": "HUANJING 1B (HJ-1B)",
        "group": "dmc",
        "lat": 8.995827438830483,
        "lon": 151.0033503429296,
        "alt_km": 611.1688189555189,
        "timestamp": "2025-12-03T08:58:45.665747+00:00",
        "meta_object_name": "HUANJING 1B (HJ-1B)",
        "meta_object_id": "2008-041B",
        "meta_epoch": "2025-12-03T04:58:33.624768",
        "meta_mean_motion": 14.82780387,
        "meta_eccentricity": 0.0038154,
        "meta_inclination": 97.6396,
        "meta_ra_of_asc_node": 329.6264,
        "meta_arg_of_pericenter": 105.8928,
        "meta_mean_anomaly": 254.6497,
        "meta_ephemeris_type": 0,
        "meta_classification_type": "U",
        "meta_norad_cat_id": 33321,
        "meta_element_set_no": 999,
        "meta_rev_at_epoch": 92936,
        "meta_bstar": 0.0001995,
        "meta_mean_motion_dot": 1.582e-05,
        "meta_mean_motion_ddot": 0,
        "tle_line1": "1 33321U 08041B   25337.20733362  .00001582  00000+0  19950-3 0  9993",
        "tle_line2": "2 33321  97.6396 329.6264 0038154 105.8928 254.6497 14.82780387929364"
      },
      "geometry": {
        "type": "Point",
        "coordinates": [
          151.0033503429296,
          8.995827438830483
        ]
      }
    },
    {
      "type": "Feature",
      "properties": {
        "norad_id": 33446,
        "name": "YAOGAN-4",
        "group": "dmc",
        "lat": 81.45505296577738,
        "lon": -160.27371656283728,
        "alt_km": 613.9466275266541,
        "timestamp": "2025-12-03T08:58:45.665769+00:00",
        "meta_object_name": "YAOGAN-4",
        "meta_object_id": "2008-061A",
        "meta_epoch": "2025-12-02T19:37:56.076096",
        "meta_mean_motion": 14.82631045,
        "meta_eccentricity": 0.0014458,
        "meta_inclination": 97.9168,
        "meta_ra_of_asc_node": 267.0155,
        "meta_arg_of_pericenter": 356.4345,
        "meta_mean_anomaly": 3.6763,
        "meta_ephemeris_type": 0,
        "meta_classification_type": "U",
        "meta_norad_cat_id": 33446,
        "meta_element_set_no": 999,
        "meta_rev_at_epoch": 91656,
        "meta_bstar": 0.00026598,
        "meta_mean_motion_dot": 2.092e-05,
        "meta_mean_motion_ddot": 0,
        "tle_line1": "1 33446U 08061A   25336.81801014  .00002092  00000+0  26598-3 0  9992",
        "tle_line2": "2 33446  97.9168 267.0155 0014458 356.4345   3.6763 14.82631045916566"
      },
      "geometry": {
        "type": "Point",
        "coordinates": [
          -160.27371656283728,
          81.45505296577738
        ]
      }
    },
    {
      "type": "Feature",
      "properties": {
        "norad_id": 35681,
        "name": "DEIMOS-1",
        "group": "dmc",
        "lat": 62.46887123556275,
        "lon": -26.51279628843286,
        "alt_km": 637.5324223230864,
        "timestamp": "2025-12-03T08:58:45.665782+00:00",
        "meta_object_name": "DEIMOS-1",
        "meta_object_id": "2009-041A",
        "meta_epoch": "2025-12-03T05:11:49.157952",
        "meta_mean_motion": 14.74928273,
        "meta_eccentricity": 0.0002676,
        "meta_inclination": 97.7146,
        "meta_ra_of_asc_node": 138.2637,
        "meta_arg_of_pericenter": 97.2642,
        "meta_mean_anomaly": 262.8872,
        "meta_ephemeris_type": 0,
        "meta_classification_type": "U",
        "meta_norad_cat_id": 35681,
        "meta_element_set_no": 999,
        "meta_rev_at_epoch": 87799,
        "meta_bstar": 0.00015362,
        "meta_mean_motion_dot": 9.84e-06,
        "meta_mean_motion_ddot": 0,
        "tle_line1": "1 35681U 09041A   25337.21654118  .00000984  00000+0  15362-3 0  9995",
        "tle_line2": "2 35681  97.7146 138.2637 0002676  97.2642 262.8872 14.74928273877992"
      },
      "geometry": {
        "type": "Point",
        "coordinates": [
          -26.51279628843286,
          62.46887123556275
        ]
      }
    },
    {
      "type": "Feature",
      "properties": {
        "norad_id": 35683,
        "name": "UK-DMC 2",
        "group": "dmc",
        "lat": 69.42137235350047,
        "lon": -45.88243179798464,
        "alt_km": 635.6600470685107,
        "timestamp": "2025-12-03T08:58:45.665792+00:00",
        "meta_object_name": "UK-DMC 2",
        "meta_object_id": "2009-041C",
        "meta_epoch": "2025-12-03T05:13:55.555968",
        "meta_mean_motion": 14.75586686,
        "meta_eccentricity": 0.0001285,
        "meta_inclination": 97.8556,
        "meta_ra_of_asc_node": 112.3902,
        "meta_arg_of_pericenter": 102.8417,
        "meta_mean_anomaly": 257.2936,
        "meta_ephemeris_type": 0,
        "meta_classification_type": "U",
        "meta_norad_cat_id": 35683,
        "meta_element_set_no": 999,
        "meta_rev_at_epoch": 87766,
        "meta_bstar": 0.00021626,
        "meta_mean_motion_dot": 1.426e-05,
        "meta_mean_motion_ddot": 0,
        "tle_line1": "1 35683U 09041C   25337.21800412  .00001426  00000+0  21626-3 0  9999",
        "tle_line2": "2 35683  97.8556 112.3902 0001285 102.8417 257.2936 14.75586686877668"
      },
      "geometry": {
        "type": "Point",
        "coordinates": [
          -45.88243179798464,
          69.42137235350047
        ]
      }
    },
    {
      "type": "Feature",
      "properties": {
        "norad_id": 40715,
        "name": "DMC3-FM1",
        "group": "dmc",
        "lat": -7.5113162010089605,
        "lon": 23.889201566840754,
        "alt_km": 619.8936450935335,
        "timestamp": "2025-12-03T08:58:45.665803+00:00",
        "meta_object_name": "DMC3-FM1",
        "meta_object_id": "2015-032A",
        "meta_epoch": "2025-12-03T03:17:16.242720",
        "meta_mean_motion": 14.85412547,
        "meta_eccentricity": 0.0005349,
        "meta_inclination": 97.67,
        "meta_ra_of_asc_node": 204.6789,
        "meta_arg_of_pericenter": 355.2469,
        "meta_mean_anomaly": 4.8695,
        "meta_ephemeris_type": 0,
        "meta_classification_type": "U",
        "meta_norad_cat_id": 40715,
        "meta_element_set_no": 999,
        "meta_rev_at_epoch": 56080,
        "meta_bstar": 0.00013955,
        "meta_mean_motion_dot": 1.151e-05,
        "meta_mean_motion_ddot": 0,
        "tle_line1": "1 40715U 15032A   25337.13699355  .00001151  00000+0  13955-3 0  9992",
        "tle_line2": "2 40715  97.6700 204.6789 0005349 355.2469   4.8695 14.85412547560801"
      },
      "geometry": {
        "type": "Point",
        "coordinates": [
          23.889201566840754,
          -7.5113162010089605
        ]
      }
    },
    {
      "type": "Feature",
      "properties": {
        "norad_id": 40716,
        "name": "DMC3-FM2",
        "group": "dmc",
        "lat": 66.02147486991525,
        "lon": -171.3063948436425,
        "alt_km": 604.3327670954459,
        "timestamp": "2025-12-03T08:58:45.665814+00:00",
        "meta_object_name": "DMC3-FM2",
        "meta_object_id": "2015-032B",
        "meta_epoch": "2025-12-03T03:49:40.855296",
        "meta_mean_motion": 14.85413803,
        "meta_eccentricity": 0.0005999,
        "meta_inclination": 97.6757,
        "meta_ra_of_asc_node": 206.1376,
        "meta_arg_of_pericenter": 359.2804,
        "meta_mean_anomaly": 0.8402,
        "meta_ephemeris_type": 0,
        "meta_classification_type": "U",
        "meta_norad_cat_id": 40716,
        "meta_element_set_no": 999,
        "meta_rev_at_epoch": 56080,
        "meta_bstar": 0.00014035,
        "meta_mean_motion_dot": 1.158e-05,
        "meta_mean_motion_ddot": 0,
        "tle_line1": "1 40716U 15032B   25337.15950064  .00001158  00000+0  14035-3 0  9999",
        "tle_line2": "2 40716  97.6757 206.1376 0005999 359.2804   0.8402 14.85413803560809"
      },
      "geometry": {
        "type": "Point",
        "coordinates": [
          -171.3063948436425,
          66.02147486991525
        ]
      }
    },
    {
      "type": "Feature",
      "properties": {
        "norad_id": 40717,
        "name": "DMC3-FM3",
        "group": "dmc",
        "lat": -47.6221996177032,
        "lon": -143.52248125951454,
        "alt_km": 616.6892106536816,
        "timestamp": "2025-12-03T08:58:45.665825+00:00",
        "meta_object_name": "DMC3-FM3",
        "meta_object_id": "2015-032C",
        "meta_epoch": "2025-12-03T04:20:44.164608",
        "meta_mean_motion": 14.85407654,
        "meta_eccentricity": 0.0005358,
        "meta_inclination": 97.6811,
        "meta_ra_of_asc_node": 207.7851,
        "meta_arg_of_pericenter": 1.4256,
        "meta_mean_anomaly": 358.6974,
        "meta_ephemeris_type": 0,
        "meta_classification_type": "U",
        "meta_norad_cat_id": 40717,
        "meta_element_set_no": 999,
        "meta_rev_at_epoch": 56081,
        "meta_bstar": 0.00011404,
        "meta_mean_motion_dot": 9.31e-06,
        "meta_mean_motion_ddot": 0,
        "tle_line1": "1 40717U 15032C   25337.18106672  .00000931  00000+0  11404-3 0  9996",
        "tle_line2": "2 40717  97.6811 207.7851 0005358   1.4256 358.6974 14.85407654560818"
      },
      "geometry": {
        "type": "Point",
        "coordinates": [
          -143.52248125951454,
          -47.6221996177032
        ]
      }
    }
  ]
}